STARLINK-35500          
1 66093U 25236H   25319.83335647  .00049594  00000+0  89513-3 0  9990
2 66093  53.1596 274.4255 0001592  94.5034  90.7653 15.49275795  5555
STARLINK-35528          
1 66094U 25236J   25319.83335647 -.00021697  00000+0 -38318-3 0  9994
2 66094  53.1596 274.4212 0001633  95.3590  91.8255 15.49303475  5558
STARLINK-35559          
1 66095U 25236K   25319.83335647 -.00027394  00000+0 -48618-3 0  9999
2 66095  53.1597 274.4177 0001731  92.4596  96.6372 15.49309099  5554
STARLINK-34386          
1 66096U 25236L   25319.83335647 -.00026544  00000+0 -47080-3 0  9998
2 66096  53.1596 274.4130 0001622  71.2919 119.7224 15.49308490  5553
STARLINK-35613          
1 66097U 25236M   25319.83335647  .00059717  00000+0  10748-2 0  9995
2 66097  53.1596 274.4054 0001700  91.5686 103.2832 15.49276492  5551
STARLINK-34206          
1 66098U 25236N   25319.83335647 -.00028460  00000+0 -50550-3 0  9995
2 66098  53.1596 274.4015 0001702  92.7068 104.0608 15.49307826  5543
STARLINK-34460          
1 66099U 25236P   25319.83335647 -.00021539  00000+0 -38030-3 0  9995
2 66099  53.1596 274.4092 0001663  88.3243 104.6073 15.49305352  5556
STARLINK-35609          
1 66100U 25236Q   25319.83335647  .00065235  00000+0  11726-2 0  9999
2 66100  53.1594 274.3971 0001770  95.9314 102.7548 15.49273484  5493
STARLINK-35595          
1 66101U 25236R   25319.83335647 -.00026760  00000+0 -47472-3 0  9990
2 66101  53.1595 274.3927 0001691  93.0544 107.5453 15.49307646  5498
STARLINK-35599          
1 66102U 25236S   25319.83335647  .00027436  00000+0  50004-3 0  9995
2 66102  53.1595 274.3896 0001745  92.1403 110.3781 15.49284980  5499
STARLINK-35622          
1 66103U 25236T   25319.83335647 -.00017768  00000+0 -31217-3 0  9990
2 66103  53.1594 274.3814 0001697  95.6893 110.6625 15.49303979  5553
STARLINK-35452          
1 66104U 25236U   25319.83335647  .00046392  00000+0  83812-3 0  9992
2 66104  53.1594 274.3852 0001723  92.2543 112.1802 15.49278195  5556
STARLINK-35561          
1 66105U 25236V   25319.83335647  .00058235  00000+0  10486-2 0  9998
2 66105  53.1594 274.3773 0001738  92.6692 115.6017 15.49273705  5495
STARLINK-35584          
1 66106U 25236W   25319.83335647 -.00023765  00000+0 -42058-3 0  9992
2 66106  53.1594 274.3721 0001737  92.4221 117.7650 15.49304215  5558
STARLINK-35593          
1 66107U 25236X   25319.83335647  .00048561  00000+0  87665-3 0  9995
2 66107  53.1594 274.3686 0001833  92.0828 120.0176 15.49279500  5553
STARLINK-35590          
1 66108U 25236Y   25319.83335647  .00042792  00000+0  77401-3 0  9993
2 66108  53.1594 274.3603 0001596  95.0459 120.8888 15.49280458  5497
STARLINK-35545          
1 66109U 25236Z   25319.83335647 -.00024730  00000+0 -43802-3 0  9996
2 66109  53.1593 274.3643 0001671  94.5547 119.4643 15.49305839  5558
STARLINK-35427          
1 66110U 25236AA  25319.83335647 -.00018781  00000+0 -33045-3 0  9995
2 66110  53.1593 274.3558 0001688  92.9268 124.9244 15.49305385  5559
STARLINK-35574          
1 66111U 25236AB  25319.83335647 -.00024214  00000+0 -42869-3 0  9998
2 66111  53.1592 274.3522 0001702  95.6472 124.1254 15.49304034  5490
STARLINK-35531          
1 66112U 25236AC  25319.83335647  .00054887  00000+0  98918-3 0  9992
2 66112  53.1591 274.3444 0001751  96.0954 127.5130 15.49274356  5557
STARLINK-35491          
1 66113U 25236AD  25319.83335647  .00050957  00000+0  91932-3 0  9996
2 66113  53.1593 274.3483 0001681  91.2824 130.4032 15.49277037  5551
STARLINK-35496          
1 66114U 25237A   25319.83335647 -.00080817  00000+0 -14587-2 0  9998
2 66114  53.1602 214.4090 0001249  93.7339 314.7123 15.49334622  5158
STARLINK-35428          
1 66115U 25237B   25319.83335647 -.02078633  00000+0 -50327-1 0  9995
2 66115  53.1604 214.4268 0000897 103.8240 295.8373 15.44153009  5159
STARLINK-35573          
1 66116U 25237C   25319.83335647 -.00070429  00000+0 -12685-2 0  9995
2 66116  53.1602 214.4015 0001261  91.8836 320.3957 15.49334283  5153
STARLINK-35572          
1 66117U 25237D   25319.83335647 -.02087512  00000+0 -46239-1 0  9990
2 66117  53.1602 214.3992 0000922 107.8800 305.5530 15.46742240  5154
STARLINK-35468          
1 66118U 25237E   25319.83335647 -.00432334  00000+0 -11326-1 0  9994
2 66118  53.1605 214.4613 0001314 122.9811 258.9353 15.39877551  5155
STARLINK-35547          
1 66119U 25237F   25319.83335647 -.00100423  00000+0 -18182-2 0  9994
2 66119  53.1601 214.3806 0001103 112.4063 309.4531 15.49348754  5153
STARLINK-35553          
1 66120U 25237G   25319.83335647 -.01912638  00000+0 -37765-1 0  9993
2 66120  53.1601 214.3892 0001029  78.5231 339.4530 15.49705179  5156
STARLINK-35631          
1 66121U 25237H   25319.83335647 -.00085046  00000+0 -15359-2 0  9993
2 66121  53.1602 214.3841 0001255 104.3496 315.5872 15.49342146  5159
STARLINK-35653          
1 66122U 25237J   25319.83335647 -.00074901  00000+0 -13504-2 0  9992
2 66122  53.1602 214.3768 0001166  94.5531 329.2229 15.49334533  5158
STARLINK-35628          
1 66123U 25237K   25319.83335647 -.00166082  00000+0 -30351-2 0  9994
2 66123  53.1602 214.3731 0000986  96.6182 329.1004 15.49372958  5156
STARLINK-35645          
1 66124U 25237L   25319.83335647 -.00280268  00000+0 -51863-2 0  9999
2 66124  53.1602 214.3691 0000609 103.0271 324.5899 15.49460413  5151
STARLINK-35649          
1 66125U 25237M   25319.83335647  .00040524  00000+0  73322-3 0  9992
2 66125  53.1601 214.3655 0001233  93.2865 336.1638 15.49295985  5154
STARLINK-35658          
1 66126U 25237N   25319.83335647 -.00042582  00000+0 -76146-3 0  9998
2 66126  53.1603 214.3600 0001079  89.4937 341.9549 15.49318981  5159
STARLINK-35629          
1 66127U 25237P   25319.83335647 -.00108719  00000+0 -19712-2 0  9999
2 66127  53.1600 214.3571 0000920 124.5267 308.8392 15.49348836  5155
STARLINK-35612          
1 66128U 25237Q   25319.83335647 -.01021508  00000+0 -27441-1 0  9998
2 66128  53.1603 214.4111 0000864 111.1343 294.4081 15.40337988  5156
STARLINK-35632          
1 66129U 25237R   25319.83335647 -.02070173  00000+0 -50763-1 0  9995
2 66129  53.1595 214.3727 0000906 108.3333 316.5335 15.43766995  5158
STARLINK-35637          
1 66130U 25237S   25319.83335647 -.02086772  00000+0 -46033-1 0  9994
2 66130  53.1602 214.3487 0000937 111.7612 324.9030 15.46858590  5155
STARLINK-35630          
1 66131U 25237T   25319.83335647 -.01789174  00000+0 -35680-1 0  9996
2 66131  53.1602 214.3400 0001548  89.3917 351.5756 15.49743372  5153
STARLINK-34412          
1 66132U 25237U   25319.83335647 -.00048405  00000+0 -86822-3 0  9997
2 66132  53.1601 214.3360 0001359  97.9561 345.1303 15.49289924  5063
STARLINK-35520          
1 66133U 25237V   25319.83335647 -.00035138  00000+0 -62638-3 0  9996
2 66133  53.1601 214.3321 0000991  94.0073 350.8550 15.49317263  5153
STARLINK-35525          
1 66134U 25237W   25319.83335647 -.00084088  00000+0 -15178-2 0  9991
2 66134  53.1599 214.3290 0000993 103.8448 342.9133 15.49352475  5155
STARLINK-34852          
1 66135U 25237X   25319.83335647 -.00135323  00000+0 -24615-2 0  9997
2 66135  53.1601 214.3239 0001090 101.4073 347.2626 15.49375923  5114
STARLINK-35592          
1 66136U 25237Y   25319.83335647 -.00081464  00000+0 -14704-2 0  9992
2 66136  53.1601 214.3202 0001136  91.7958 358.8166 15.49339360  5155
STARLINK-35576          
1 66137U 25237Z   25319.83335647 -.00050230  00000+0 -90044-3 0  9992
2 66137  53.1601 214.3156 0001295  90.9799   1.5564 15.49322172  5151
STARLINK-35623          
1 66138U 25237AA  25319.83335647 -.00045316  00000+0 -81102-3 0  9997
2 66138  53.1599 214.3132 0000941  82.1238  12.3206 15.49323951  5159
STARLINK-35549          
1 66139U 25237AB  25319.83335647  .00040842  00000+0  74034-3 0  9991
2 66139  53.1601 214.3041 0001461  79.9119  18.3493 15.49239967  5150
STARLINK-35625          
1 66140U 25237AC  25319.83335647 -.00084515  00000+0 -15262-2 0  9997
2 66140  53.1601 214.3081 0000899  83.2486  13.1148 15.49342023  5153
STARLINK-35603          
1 66141U 25237AD  25319.83335647 -.00121996  00000+0 -22159-2 0  9996
2 66141  53.1600 214.3003 0000992  85.9517  14.2465 15.49359073  5152
TJS-20                  
1 66142U 25238A   25320.60604698  .00000026  00000+0  00000+0 0  9996
2 66142   5.9462 300.4369 0001701 112.8746 283.3078  1.00275182   209
CZ-5 R/B                
1 66143U 25238B   25319.64673036  .00044567 -14815-6  12189-2 0  9990
2 66143  16.2942 265.6537 7590066 178.4984 187.2863  1.94306503   460
SPAINSAT NG II          
1 66144U 25239A   25316.17219603 -.00000350  00000+0  00000+0 0  9995
2 66144  21.7009 244.3575 7981845 182.7880 165.3587  1.06866209   236
STARLINK-35318          
1 66146U 25240A   25319.83335647 -.02058292  00000+0 -49813-1 0  9990
2 66146  53.1598 233.5186 0001487  98.4553 143.7740 15.44124348  4622
STARLINK-33948          
1 66147U 25240B   25319.83335647 -.00068388  00000+0 -12313-2 0  9992
2 66147  53.1596 233.4925 0001381  89.2014 165.7195 15.49332676  4622
STARLINK-35081          
1 66148U 25240C   25319.83335647  .00072914  00000+0  12430-2 0  9991
2 66148  53.1598 233.4666 0000972 124.8066 143.1102 15.50729149  4574
STARLINK-35601          
1 66149U 25240D   25319.83335647 -.00070836  00000+0 -12760-2 0  9991
2 66149  53.1599 233.4843 0001152  84.3084 174.4504 15.49333033  4578
STARLINK-35605          
1 66150U 25240E   25319.83335647 -.00117291  00000+0 -21277-2 0  9993
2 66150  53.1598 233.4808 0001233  99.2669 161.3885 15.49373034  4576
STARLINK-35540          
1 66151U 25240F   25319.83335647  .00071165  00000+0  12790-2 0  9991
2 66151  53.1598 233.4765 0000800 116.3482 146.1777 15.49242171  4570
STARLINK-35455          
1 66152U 25240G   25319.83335647 -.02072751  00000+0 -47103-1 0  9993
2 66152  53.1600 233.4814 0001548 105.8010 154.2166 15.45974897  4575
